EXPRESS-AM8             
1 40895U 15048A   22079.37888104 -.00000111  00000+0  00000+0 0  9995
2 40895   0.0257 298.7889 0000614 177.3306 184.1504  1.00271881 23838
BEIDOU 20               
1 40938U 15053A   22078.96126295 -.00000107  00000+0  00000+0 0  9994
2 40938  51.6394 276.8963 0043711 192.7143 149.6810  1.00266307 23805
SKY MUSTER 1 (NBN1A)    
1 40940U 15054A   22079.48136234 -.00000279  00000+0  00000+0 0  9990
2 40940   0.0126 231.1560 0001761 129.7099 130.6334  1.00271734 23727
ARSAT 2                 
1 40941U 15054B   22079.50901049 -.00000224  00000+0  00000+0 0  9998
2 40941   0.0138 115.2779 0001724 238.4032 286.5681  1.00271524 23788
MORELOS 3               
1 40946U 15056A   22079.53055154 -.00000045  00000+0  00000+0 0  9996
2 40946   3.8439 333.6668 0002880 357.1865 285.0278  1.00272459 23748
APSTAR 9                
1 40982U 15059A   22078.83584148 -.00000266  00000+0  00000+0 0  9996
2 40982   0.0302 134.7305 0000968 183.5726 301.9533  1.00271459 23602
TURKSAT 4B              
1 40984U 15060A   22079.46339542  .00000115  00000+0  00000+0 0  9998
2 40984   0.0196 193.3409 0002162 176.9279  24.5258  1.00268499 23565
CHINASAT 2C (ZX 2C)     
1 41021U 15063A   22078.61290043 -.00000324  00000+0  00000+0 0  9995
2 41021   0.0240 311.5778 0002915  97.5937  91.9944  1.00269578 23464
GSAT-15                 
1 41028U 15065A   22079.48446285 -.00000258  00000+0  00000+0 0  9997
2 41028   0.0359 259.0255 0001531 167.4994  19.3716  1.00271769 23265
BADR-7 (ARABSAT-6B)     
1 41029U 15065B   22079.31503737  .00000145  00000+0  00000+0 0  9990
2 41029   0.0439 240.4704 0003136  14.2471  62.4947  1.00270022 23222
LAOSAT 1                
1 41034U 15067A   22079.47900745 -.00000344  00000+0  00000+0 0  9997
2 41034   0.0471  14.9280 0002171 321.1917 142.7695  1.00267828 23323
TELSTAR 12V             
1 41036U 15068A   22079.30692608 -.00000119  00000+0  00000+0 0  9998
2 41036   0.0172 142.1471 0002323 220.9213 270.2349  1.00271404 23084
CHINASAT 1C (ZX 1C)     
1 41103U 15073A   22079.54145564 -.00000149  00000+0  00000+0 0  9992
2 41103   3.1677  86.1902 0000464 291.8310  76.3596  1.00271797 23127
ELEKTRO-L 2             
1 41105U 15074A   22079.37879382 -.00000113  00000+0  00000+0 0  9999
2 41105   2.7637  89.1530 0000430 120.7167  89.9557  1.00272840 22972
COSMOS 2513             
1 41121U 15075A   22079.54119398 -.00000138  00000+0  00000+0 0  9998
2 41121   0.0459 113.3702 0001439 270.8483  68.8891  1.00271140 22982
EXPRESS-AMU1            
1 41191U 15082A   22079.27132769  .00000156  00000+0  00000+0 0  9999
2 41191   0.0215 187.8582 0003158 169.1189 314.5766  1.00268579 22731
GAOFEN 4                
1 41194U 15083A   22079.54932737 -.00000335  00000+0  00000+0 0  9996
2 41194   0.0489 357.8293 0004915 181.9869 301.7215  1.00267577 22985
BELINTERSAT-1           
1 41238U 16001A   22079.46348264  .00000106  00000+0  00000+0 0  9998
2 41238   0.0169  53.1025 0000867  92.6369 250.5747  1.00274768 22704
IRNSS-1E                
1 41241U 16003A   22076.46130263 -.00000274  00000+0  00000+0 0  9996
2 41241  29.7749  86.0396 0018711 189.0610 177.8115  1.00273823 22513
EUTELSAT 9B             
1 41310U 16005A   22079.31172308  .00000062  00000+0  00000+0 0  9992
2 41310   0.0606  72.4625 0003173 249.9274 336.6288  1.00272641 22575
SES-9                   
1 41380U 16013A   22079.50465759 -.00000345  00000+0  00000+0 0  9999
2 41380   0.0373 279.7051 0001857 131.6220  56.6559  1.00270862 21902
EUTELSAT 65 WEST A      
1 41382U 16014A   22079.51215035 -.00000276  00000+0  00000+0 0  9996
2 41382   0.0264   4.1339 0001995   1.0289 292.0303  1.00270583 22005
IRNSS-1F                
1 41384U 16015A   22079.22480341  .00000161  00000+0  00000+0 0  9993
2 41384   2.0809 163.8439 0022925 195.0715 292.2492  1.00273143 22121
BEIDOU IGSO-6           
1 41434U 16021A   22079.40016227 -.00000125  00000+0  00000+0 0  9995
2 41434  57.9700  53.7521 0043318 219.9847 141.5872  1.00259771 21944
IRNSS-1G                
1 41469U 16027A   22079.47926911 -.00000334  00000+0  00000+0 0  9998
2 41469   2.0248 166.8617 0005928 263.6910  49.4082  1.00275699 21636
JCSAT-2B                
1 41471U 16028A   22079.55362654 -.00000166  00000+0  00000+0 0  9992
2 41471   0.0231 168.8175 0002064 199.7785 162.7646  1.00268313 21558
THAICOM 8               
1 41552U 16031A   22079.49910580 -.00000121  00000+0  00000+0 0  9997
2 41552   0.0815  87.5326 0004901 287.7697  60.8848  1.00271581 21174
INTELSAT 31 (IS-31)     
1 41581U 16035A   22079.49787556 -.00000150  00000+0  00000+0 0  9990
2 41581   0.0101 195.4674 0002371  12.3283  54.3704  1.00268834 21155
BEIDOU-2 G7             
1 41586U 16037A   22079.58049749 -.00000353  00000+0  00000+0 0  9997
2 41586   1.7788  68.3476 0008875 357.2006  72.0065  1.00276037 21258
ABS-2A (MONGOLSAT-1)    
1 41588U 16038A   22079.39658632 -.00000084  00000+0  00000+0 0  9997
2 41588   0.0196 173.9454 0002079 121.5621  99.8595  1.00273145 21150
EUTELSAT 117 WEST B     
1 41589U 16038B   22079.52737295 -.00000011  00000+0  00000+0 0  9996
2 41589   0.0250  35.1398 0000332 252.5248 323.2115  1.00272012 21130
BRISAT                  
1 41591U 16039A   22079.41414521 -.00000197  00000+0  00000+0 0  9997
2 41591   0.0233 194.7045 0002331 165.9416 116.8661  1.00270422 21089
ECHOSTAR 18             
1 41592U 16039B   22079.51293531 -.00000281  00000+0  00000+0 0  9999
2 41592   0.0227 173.2646 0001279 205.2720 282.7800  1.00267965 21084
MUOS-5                  
1 41622U 16041A   22079.53967644 -.00000129  00000+0  00000+0 0  9992
2 41622   5.8205 301.6027 0194075 233.5166  92.1747  1.00271850 21544
TIANTONG-1 1            
1 41725U 16048A   22079.47368715 -.00000318  00000+0  00000+0 0  9990
2 41725   2.3199 354.1984 0004937  25.1838  70.4509  1.00266866 20731
JCSAT-16                
1 41729U 16050A   22078.90643017 -.00000307  00000+0  00000+0 0  9993
2 41729   0.0362  98.8062 0002111   6.0882 174.8287  1.00269577 20521
USA 270                 
1 41744U 16052A   22074.03424059  .00000057  00000+0  00000+0 0  9996
2 41744   0.2134  99.6259 0000165 229.6823 277.9686  1.00096821  3146
USA 271                 
1 41745U 16052B   22077.32484953 -.00000361  00000+0  00000+0 0  9990
2 41745   0.1872  98.7505 0001266 187.8346 128.5891  1.00147292  3189
INTELSAT 36 (IS-36)     
1 41747U 16053A   22078.98035566 -.00000024  00000+0  00000+0 0  9994
2 41747   0.0128 177.1000 0001230 190.4755 231.3429  1.00269264 20409
INTELSAT 33E (IS-33E)   
1 41748U 16053B   22078.96303472  .00000049  00000+0  00000+0 0  9993
2 41748   0.0360 325.0042 0001585  41.1239 218.0225  1.00273269 20709
INSAT-3DR               
1 41752U 16054A   22079.46819241 -.00000077  00000+0  00000+0 0  9993
2 41752   0.0640 101.0218 0011624 180.5888 138.8579  1.00271413 20277
GSAT-18                 
1 41793U 16060A   22079.46819241 -.00000077  00000+0  00000+0 0  9995
2 41793   0.0354 115.1268 0001443 276.1434  29.2607  1.00271030 19999
SKY MUSTER 2 (NBN1B)    
1 41794U 16060B   22079.45849189 -.00000244  00000+0  00000+0 0  9995
2 41794   0.0106 226.4214 0001541 135.7720 125.6175  1.00271814 19989
HIMAWARI-9              
1 41836U 16064A   22079.48153677 -.00000275  00000+0  00000+0 0  9993
2 41836   0.0100 204.7076 0000804 187.8217  99.5675  1.00273598 19654
SHIJIAN-17 (SJ-17)      
1 41838U 16065A   22079.63345229 -.00000362  00000+0  00000+0 0  9996
2 41838   1.8039  90.4347 0001352 355.4128  77.8752  1.00271799 19678
GOES 16                 
1 41866U 16071A   22079.48931524 -.00000248  00000+0  00000+0 0  9999
2 41866   0.0760 290.2282 0001106 107.3142 241.3713  1.00270793 19573
TIANLIAN 1-04           
1 41869U 16072A   22079.48562301  .00000030  00000+0  00000+0 0  9994
2 41869   0.1571 276.2025 0021846 195.2040  58.2298  1.00268878 19789
WGS F8 (USA 272)        
1 41879U 16075A   22079.55030250 -.00000203  00000+0  00000+0 0  9992
2 41879   0.0170 141.8796 0000282 234.7000 149.3707  1.00271149 19290
FENGYUN 4A              
1 41882U 16077A   22079.56346741 -.00000329  00000+0  00000+0 0  9993
2 41882   0.1987  88.1136 0005204 347.2487  50.1257  1.00266337 19449
ECHOSTAR 19             
1 41893U 16079A   22079.54441612 -.00000139  00000+0  00000+0 0  9997
2 41893   0.0200 150.5284 0002118 219.5791 266.8337  1.00274709 19173
JCSAT-110A (JCSAT-15)   
1 41903U 16082A   22079.50465759 -.00000351  00000+0  00000+0 0  9993
2 41903   0.0195 159.3872 0001516 214.8776  95.4664  1.00269510 19229
STAR ONE D1             
1 41904U 16082B   22079.50839997 -.00000210  00000+0  00000+0 0  9997
2 41904   0.0275 110.6051 0001926 227.1750 299.2369  1.00271008 19234
TJS-2                   
1 41911U 17001A   22079.55344451 -.00000006  00000+0  00000+0 0  9991
2 41911   0.1454  83.2411 0003675  86.8960 273.6095  1.00270486 19188
SBIRS GEO-4 (USA 273)   
1 41937U 17004A   22079.57905171  .00000128  00000+0  00000+0 0  9990
2 41937   2.5132 317.3195 0001959  46.8086 222.9964  1.00272313 19063
HISPASAT 36W-1          
1 41942U 17006A   22079.19563260 -.00000244  00000+0  00000+0 0  9995
2 41942   0.0094  49.9995 0001065 323.3862 198.7333  1.00271564 18682
TELKOM 3S               
1 41944U 17007A   22079.50465759 -.00000363  00000+0  00000+0 0  9999
2 41944   0.0163 218.3132 0002322 142.0630 117.2977  1.00271956 18609
INTELSAT 32E (IS-32E)   
1 41945U 17007B   22079.01426333 -.00000269  00000+0  00000+0 0  9996
2 41945   0.0203 150.0706 0000598 229.4269 119.9765  1.00272064 18699
ECHOSTAR 23             
1 42070U 17014A   22079.43670667 -.00000195  00000+0  00000+0 0  9999
2 42070   0.0019 177.7440 0002049 181.4664 252.1707  1.00132263 18393
WGS F9 (USA 275)        
1 42075U 17016A   22079.37922993 -.00000097  00000+0  00000+0 0  9992
2 42075   0.0249 191.0010 0000206 223.3452 248.0641  1.00268565 18362
